[{"OBJECT_NAME":"STARLINK-34367","OBJECT_ID":"2025-130Q","EPOCH":"2026-03-09T11:32:00.986208","MEAN_MOTION":15.30196054,"ECCENTRICITY":0.00012958,"INCLINATION":53.159,"RA_OF_ASC_NODE":89.3241,"ARG_OF_PERICENTER":77.8975,"MEAN_ANOMALY":282.2171,"EPHEMERIS_TYPE":0,"CLASSIFICATION_TYPE":"U","NORAD_CAT_ID":64452,"ELEMENT_SET_NO":999,"REV_AT_EPOCH":4066,"BSTAR":0.00074364522,"MEAN_MOTION_DOT":0.00021727,"MEAN_MOTION_DDOT":0},{"OBJECT_NAME":"DMSP 5D-2 F14 DEB","OBJECT_ID":"1997-012G","EPOCH":"2026-03-09T18:05:19.087296","MEAN_MOTION":15.2878374,"ECCENTRICITY":0.00491251,"INCLINATION":99.2047,"RA_OF_ASC_NODE":151.8456,"ARG_OF_PERICENTER":247.1908,"MEAN_ANOMALY":112.4133,"EPHEMERIS_TYPE":0,"CLASSIFICATION_TYPE":"U","NORAD_CAT_ID":62936,"ELEMENT_SET_NO":999,"REV_AT_EPOCH":6425,"BSTAR":0.05046686,"MEAN_MOTION_DOT":0.01624988,"MEAN_MOTION_DDOT":0}]
